[{"OBJECT_NAME":"SHIYAN-27 C","OBJECT_ID":"2025-078C","EPOCH":"2026-03-10T00:15:30.147840","MEAN_MOTION":13.57242447,"ECCENTRICITY":7.327e-5,"INCLINATION":99.6952,"RA_OF_ASC_NODE":77.7773,"ARG_OF_PERICENTER":94.8771,"MEAN_ANOMALY":265.2451,"EPHEMERIS_TYPE":0,"CLASSIFICATION_TYPE":"U","NORAD_CAT_ID":63601,"ELEMENT_SET_NO":999,"REV_AT_EPOCH":4408,"BSTAR":0.00011282459,"MEAN_MOTION_DOT":3.6e-7,"MEAN_MOTION_DDOT":0},{"OBJECT_NAME":"DELTA 1 DEB","OBJECT_ID":"1975-052KS","EPOCH":"2026-03-09T08:32:35.634336","MEAN_MOTION":12.94566689,"ECCENTRICITY":0.03073766,"INCLINATION":99.2437,"RA_OF_ASC_NODE":204.9401,"ARG_OF_PERICENTER":297.5687,"MEAN_ANOMALY":84.6935,"EPHEMERIS_TYPE":0,"CLASSIFICATION_TYPE":"U","NORAD_CAT_ID":26838,"ELEMENT_SET_NO":999,"REV_AT_EPOCH":49920,"BSTAR":0.0021679713,"MEAN_MOTION_DOT":7.12e-6,"MEAN_MOTION_DDOT":0}]
